{
  "type": "FeatureCollection",
  "features": [
    {
      "type": "Feature",
      "properties": {
        "norad_id": 24946,
        "name": "IRIDIUM 33",
        "group": "iridium-33-debris",
        "lat": 38.37359551007234,
        "lon": 68.2030899646589,
        "alt_km": 776.3297303523386,
        "timestamp": "2025-12-19T14:48:36.632339+00:00",
        "meta_object_name": "IRIDIUM 33",
        "meta_object_id": "1997-051C",
        "meta_epoch": "2025-12-19T04:35:25.287360",
        "meta_mean_motion": 14.35041788,
        "meta_eccentricity": 0.00078022,
        "meta_inclination": 86.3867,
        "meta_ra_of_asc_node": 65.5138,
        "meta_arg_of_pericenter": 178.4529,
        "meta_mean_anomaly": 181.6693,
        "meta_ephemeris_type": 0,
        "meta_classification_type": "U",
        "meta_norad_cat_id": 24946,
        "meta_element_set_no": 999,
        "meta_rev_at_epoch": 47927,
        "meta_bstar": 8.9488594e-05,
        "meta_mean_motion_dot": 2.75e-06,
        "meta_mean_motion_ddot": 0,
        "tle_line1": "1 24946U 97051C   25353.19126490  .00000275  00000+0  89489-4 0  9992",
        "tle_line2": "2 24946  86.3867  65.5138 0007802 178.4529 181.6693 14.35041788479270"
      },
      "geometry": {
        "type": "Point",
        "coordinates": [
          68.2030899646589,
          38.37359551007234
        ]
      }
    },
    {
      "type": "Feature",
      "properties": {
        "norad_id": 33773,
        "name": "IRIDIUM 33 DEB",
        "group": "iridium-33-debris",
        "lat": -19.165754427239477,
        "lon": -121.07113026661169,
        "alt_km": 750.1522996670446,
        "timestamp": "2025-12-19T14:48:36.632381+00:00",
        "meta_object_name": "IRIDIUM 33 DEB",
        "meta_object_id": "1997-051L",
        "meta_epoch": "2025-12-19T05:34:19.132896",
        "meta_mean_motion": 14.43270064,
        "meta_eccentricity": 0.00130039,
        "meta_inclination": 86.4004,
        "meta_ra_of_asc_node": 57.8383,
        "meta_arg_of_pericenter": 127.5412,
        "meta_mean_anomaly": 232.6973,
        "meta_ephemeris_type": 0,
        "meta_classification_type": "U",
        "meta_norad_cat_id": 33773,
        "meta_element_set_no": 999,
        "meta_rev_at_epoch": 88441,
        "meta_bstar": 0.00021422599,
        "meta_mean_motion_dot": 7.42e-06,
        "meta_mean_motion_ddot": 0,
        "tle_line1": "1 33773U 97051L   25353.23216589  .00000742  00000+0  21423-3 0  9996",
        "tle_line2": "2 33773  86.4004  57.8383 0013003 127.5412 232.6973 14.43270064884418"
      },
      "geometry": {
        "type": "Point",
        "coordinates": [
          -121.07113026661169,
          -19.165754427239477
        ]
      }
    },
    {
      "type": "Feature",
      "properties": {
        "norad_id": 33775,
        "name": "IRIDIUM 33 DEB",
        "group": "iridium-33-debris",
        "lat": -58.28866541625382,
        "lon": -127.4741251306827,
        "alt_km": 763.4656040358368,
        "timestamp": "2025-12-19T14:48:36.632397+00:00",
        "meta_object_name": "IRIDIUM 33 DEB",
        "meta_object_id": "1997-051N",
        "meta_epoch": "2025-12-19T05:41:18.511584",
        "meta_mean_motion": 14.41481598,
        "meta_eccentricity": 0.00149197,
        "meta_inclination": 86.363,
        "meta_ra_of_asc_node": 46.7797,
        "meta_arg_of_pericenter": 135.0878,
        "meta_mean_anomaly": 292.0946,
        "meta_ephemeris_type": 0,
        "meta_classification_type": "U",
        "meta_norad_cat_id": 33775,
        "meta_element_set_no": 999,
        "meta_rev_at_epoch": 88234,
        "meta_bstar": 0.00022883463,
        "meta_mean_motion_dot": 7.63e-06,
        "meta_mean_motion_ddot": 0,
        "tle_line1": "1 33775U 97051N   25353.23701981  .00000763  00000+0  22883-3 0  9997",
        "tle_line2": "2 33775  86.3630  46.7797 0014919 135.0878 292.0946 14.41481598882341"
      },
      "geometry": {
        "type": "Point",
        "coordinates": [
          -127.4741251306827,
          -58.28866541625382
        ]
      }
    },
    {
      "type": "Feature",
      "properties": {
        "norad_id": 33776,
        "name": "IRIDIUM 33 DEB",
        "group": "iridium-33-debris",
        "lat": 27.680797788324437,
        "lon": 79.77864731801212,
        "alt_km": 771.5079905422472,
        "timestamp": "2025-12-19T14:48:36.632410+00:00",
        "meta_object_name": "IRIDIUM 33 DEB",
        "meta_object_id": "1997-051P",
        "meta_epoch": "2025-12-19T04:55:47.968320",
        "meta_mean_motion": 14.38245973,
        "meta_eccentricity": 0.00151018,
        "meta_inclination": 86.4035,
        "meta_ra_of_asc_node": 78.0608,
        "meta_arg_of_pericenter": 169.4849,
        "meta_mean_anomaly": 248.2984,
        "meta_ephemeris_type": 0,
        "meta_classification_type": "U",
        "meta_norad_cat_id": 33776,
        "meta_element_set_no": 999,
        "meta_rev_at_epoch": 88175,
        "meta_bstar": 0.00020483823,
        "meta_mean_motion_dot": 6.43e-06,
        "meta_mean_motion_ddot": 0,
        "tle_line1": "1 33776U 97051P   25353.20541630  .00000643  00000+0  20484-3 0  9990",
        "tle_line2": "2 33776  86.4035  78.0608 0015101 169.4849 248.2984 14.38245973881754"
      },
      "geometry": {
        "type": "Point",
        "coordinates": [
          79.77864731801212,
          27.680797788324437
        ]
      }
    },
    {
      "type": "Feature",
      "properties": {
        "norad_id": 33777,
        "name": "IRIDIUM 33 DEB",
        "group": "iridium-33-debris",
        "lat": -65.60136224301988,
        "lon": -139.7603369070153,
        "alt_km": 710.9739110623514,
        "timestamp": "2025-12-19T14:48:36.632423+00:00",
        "meta_object_name": "IRIDIUM 33 DEB",
        "meta_object_id": "1997-051Q",
        "meta_epoch": "2025-12-19T03:47:07.455552",
        "meta_mean_motion": 14.5565724,
        "meta_eccentricity": 0.00056471,
        "meta_inclination": 86.3778,
        "meta_ra_of_asc_node": 32.4117,
        "meta_arg_of_pericenter": 220.5643,
        "meta_mean_anomaly": 139.5144,
        "meta_ephemeris_type": 0,
        "meta_classification_type": "U",
        "meta_norad_cat_id": 33777,
        "meta_element_set_no": 999,
        "meta_rev_at_epoch": 88627,
        "meta_bstar": 0.00061273741,
        "meta_mean_motion_dot": 2.696e-05,
        "meta_mean_motion_ddot": 0,
        "tle_line1": "1 33777U 97051Q   25353.15772518  .00002696  00000+0  61274-3 0  9998",
        "tle_line2": "2 33777  86.3778  32.4117 0005647 220.5643 139.5144 14.55657240886277"
      },
      "geometry": {
        "type": "Point",
        "coordinates": [
          -139.7603369070153,
          -65.60136224301988
        ]
      }
    },
    {
      "type": "Feature",
      "properties": {
        "norad_id": 33850,
        "name": "IRIDIUM 33 DEB",
        "group": "iridium-33-debris",
        "lat": -55.95296184949619,
        "lon": -147.34371222048088,
        "alt_km": 759.4298345217985,
        "timestamp": "2025-12-19T14:48:36.632435+00:00",
        "meta_object_name": "IRIDIUM 33 DEB",
        "meta_object_id": "1997-051T",
        "meta_epoch": "2025-12-19T04:01:16.980096",
        "meta_mean_motion": 14.42160199,
        "meta_eccentricity": 0.00128264,
        "meta_inclination": 86.3412,
        "meta_ra_of_asc_node": 27.4157,
        "meta_arg_of_pericenter": 141.7137,
        "meta_mean_anomaly": 281.8035,
        "meta_ephemeris_type": 0,
        "meta_classification_type": "U",
        "meta_norad_cat_id": 33850,
        "meta_element_set_no": 999,
        "meta_rev_at_epoch": 88245,
        "meta_bstar": 0.00027148947,
        "meta_mean_motion_dot": 9.14e-06,
        "meta_mean_motion_ddot": 0,
        "tle_line1": "1 33850U 97051T   25353.16755764  .00000914  00000+0  27149-3 0  9999",
        "tle_line2": "2 33850  86.3412  27.4157 0012826 141.7137 281.8035 14.42160199882455"
      },
      "geometry": {
        "type": "Point",
        "coordinates": [
          -147.34371222048088,
          -55.95296184949619
        ]
      }
    },
    {
      "type": "Feature",
      "properties": {
        "norad_id": 33853,
        "name": "IRIDIUM 33 DEB",
        "group": "iridium-33-debris",
        "lat": -82.59367209056298,
        "lon": -45.772056377367875,
        "alt_km": 830.4335460697912,
        "timestamp": "2025-12-19T14:48:36.632447+00:00",
        "meta_object_name": "IRIDIUM 33 DEB",
        "meta_object_id": "1997-051W",
        "meta_epoch": "2025-12-19T00:02:12.626592",
        "meta_mean_motion": 13.99096092,
        "meta_eccentricity": 0.02071458,
        "meta_inclination": 85.9999,
        "meta_ra_of_asc_node": 347.0651,
        "meta_arg_of_pericenter": 216.4718,
        "meta_mean_anomaly": 199.1935,
        "meta_ephemeris_type": 0,
        "meta_classification_type": "U",
        "meta_norad_cat_id": 33853,
        "meta_element_set_no": 999,
        "meta_rev_at_epoch": 85433,
        "meta_bstar": 0.0012839679,
        "meta_mean_motion_dot": 2.25e-05,
        "meta_mean_motion_ddot": 0,
        "tle_line1": "1 33853U 97051W   25353.00153503  .00002250  00000+0  12840-2 0  9994",
        "tle_line2": "2 33853  85.9999 347.0651 0207145 216.4718 199.1935 13.99096092854335"
      },
      "geometry": {
        "type": "Point",
        "coordinates": [
          -45.772056377367875,
          -82.59367209056298
        ]
      }
    }
  ]
}